{"fetched_at":"2026-07-12T05:52:32.048Z","source":"https://celestrak.org/NORAD/elements/gp.php?GROUP=kuiper&FORMAT=JSON","constellation":"kuiper","records":[{"OBJECT_NAME":"KUIPER-00153","OBJECT_ID":"2025-217M","EPOCH":"2026-07-11T10:00:14.529312","CLASSIFICATION_TYPE":"U","MEAN_MOTION":14.79936876,"ECCENTRICITY":0.000046,"INCLINATION":51.9024,"RA_OF_ASC_NODE":198.5552,"ARG_OF_PERICENTER":78.3703,"MEAN_ANOMALY":281.7311,"EPHEMERIS_TYPE":0,"NORAD_CAT_ID":65773,"ELEMENT_SET_NO":999,"REV_AT_EPOCH":4344,"BSTAR":0.00019365129,"MEAN_MOTION_DOT":0.00001256,"MEAN_MOTION_DDOT":0},{"OBJECT_NAME":"KUIPER-00155","OBJECT_ID":"2025-217N","EPOCH":"2026-07-11T07:28:27.884640","CLASSIFICATION_TYPE":"U","MEAN_MOTION":14.79928292,"ECCENTRICITY":0.00006334,"INCLINATION":51.9013,"RA_OF_ASC_NODE":171.4824,"ARG_OF_PERICENTER":84.5946,"MEAN_ANOMALY":275.5089,"EPHEMERIS_TYPE":0,"NORAD_CAT_ID":65774,"ELEMENT_SET_NO":999,"REV_AT_EPOCH":4381,"BSTAR":0.000050680795,"MEAN_MOTION_DOT":0.00000165,"MEAN_MOTION_DDOT":0},{"OBJECT_NAME":"KUIPER-00156","OBJECT_ID":"2025-217P","EPOCH":"2026-07-11T10:48:53.511840","CLASSIFICATION_TYPE":"U","MEAN_MOTION":14.79923414,"ECCENTRICITY":0.00004735,"INCLINATION":51.9011,"RA_OF_ASC_NODE":198.3868,"ARG_OF_PERICENTER":68.3693,"MEAN_ANOMALY":291.732,"EPHEMERIS_TYPE":0,"NORAD_CAT_ID":65775,"ELEMENT_SET_NO":999,"REV_AT_EPOCH":4344,"BSTAR":0.0001968887,"MEAN_MOTION_DOT":0.0000128,"MEAN_MOTION_DDOT":0},{"OBJECT_NAME":"KUIPER-00163","OBJECT_ID":"2025-217R","EPOCH":"2026-07-11T21:08:39.975072","CLASSIFICATION_TYPE":"U","MEAN_MOTION":16.02720685,"ECCENTRICITY":0.0003454,"INCLINATION":51.8738,"RA_OF_ASC_NODE":135.5074,"ARG_OF_PERICENTER":81.8715,"MEAN_ANOMALY":278.2691,"EPHEMERIS_TYPE":0,"NORAD_CAT_ID":65777,"ELEMENT_SET_NO":999,"REV_AT_EPOCH":4434,"BSTAR":0.00061922,"MEAN_MOTION_DOT":0.00379036,"MEAN_MOTION_DDOT":0.000074638},{"OBJECT_NAME":"KUIPER-00165","OBJECT_ID":"2025-217S","EPOCH":"2026-07-11T10:33:17.995968","CLASSIFICATION_TYPE":"U","MEAN_MOTION":14.79932554,"ECCENTRICITY":0.00005123,"INCLINATION":51.8979,"RA_OF_ASC_NODE":208.3807,"ARG_OF_PERICENTER":98.2495,"MEAN_ANOMALY":261.8525,"EPHEMERIS_TYPE":0,"NORAD_CAT_ID":65778,"ELEMENT_SET_NO":999,"REV_AT_EPOCH":4330,"BSTAR":0.00016136235,"MEAN_MOTION_DOT":0.00001009,"MEAN_MOTION_DDOT":0},{"OBJECT_NAME":"KUIPER-00166","OBJECT_ID":"2025-217T","EPOCH":"2026-07-11T10:04:08.252544","CLASSIFICATION_TYPE":"U","MEAN_MOTION":14.7992882,"ECCENTRICITY":0.00003896,"INCLINATION":51.9028,"RA_OF_ASC_NODE":196.0191,"ARG_OF_PERICENTER":76.5715,"MEAN_ANOMALY":283.5291,"EPHEMERIS_TYPE":0,"NORAD_CAT_ID":65779,"ELEMENT_SET_NO":999,"REV_AT_EPOCH":4347,"BSTAR":0.000063745318,"MEAN_MOTION_DOT":0.00000265,"MEAN_MOTION_DDOT":0},{"OBJECT_NAME":"KUIPER-00167","OBJECT_ID":"2025-217U","EPOCH":"2026-07-11T13:32:13.189056","CLASSIFICATION_TYPE":"U","MEAN_MOTION":14.79929629,"ECCENTRICITY":0.0000502,"INCLINATION":51.895,"RA_OF_ASC_NODE":217.7427,"ARG_OF_PERICENTER":81.0963,"MEAN_ANOMALY":279.0056,"EPHEMERIS_TYPE":0,"NORAD_CAT_ID":65780,"ELEMENT_SET_NO":999,"REV_AT_EPOCH":4318,"BSTAR":0.00018264,"MEAN_MOTION_DOT":0.00001171,"MEAN_MOTION_DDOT":0},{"OBJECT_NAME":"KUIPER-00168","OBJECT_ID":"2025-217V","EPOCH":"2026-07-11T10:44:59.849952","CLASSIFICATION_TYPE":"U","MEAN_MOTION":14.79923003,"ECCENTRICITY":0.00004178,"INCLINATION":51.8999,"RA_OF_ASC_NODE":200.8498,"ARG_OF_PERICENTER":58.4592,"MEAN_ANOMALY":301.6411,"EPHEMERIS_TYPE":0,"NORAD_CAT_ID":65781,"ELEMENT_SET_NO":999,"REV_AT_EPOCH":4341,"BSTAR":0.00019788338,"MEAN_MOTION_DOT":0.00001287,"MEAN_MOTION_DDOT":0},{"OBJECT_NAME":"KUIPER-00169","OBJECT_ID":"2025-217W","EPOCH":"2026-07-11T10:37:14.050272","CLASSIFICATION_TYPE":"U","MEAN_MOTION":14.79930385,"ECCENTRICITY":0.00004149,"INCLINATION":51.9005,"RA_OF_ASC_NODE":205.8827,"ARG_OF_PERICENTER":72.17,"MEAN_ANOMALY":287.9307,"EPHEMERIS_TYPE":0,"NORAD_CAT_ID":65782,"ELEMENT_SET_NO":999,"REV_AT_EPOCH":4334,"BSTAR":0.00020258633,"MEAN_MOTION_DOT":0.00001324,"MEAN_MOTION_DDOT":0},{"OBJECT_NAME":"KUIPER-00170","OBJECT_ID":"2025-217X","EPOCH":"2026-07-11T00:45:59.278176","CLASSIFICATION_TYPE":"U","MEAN_MOTION":14.79921647,"ECCENTRICITY":0.00004937,"INCLINATION":51.8981,"RA_OF_ASC_NODE":212.657,"ARG_OF_PERICENTER":78.9021,"MEAN_ANOMALY":281.1997,"EPHEMERIS_TYPE":0,"NORAD_CAT_ID":65783,"ELEMENT_SET_NO":999,"REV_AT_EPOCH":4321,"BSTAR":0.00018748185,"MEAN_MOTION_DOT":0.00001208,"MEAN_MOTION_DDOT":0},{"OBJECT_NAME":"KUIPER-00172","OBJECT_ID":"2025-217Z","EPOCH":"2026-07-10T22:47:19.359168","CLASSIFICATION_TYPE":"U","MEAN_MOTION":14.79927805,"ECCENTRICITY":0.00010362,"INCLINATION":51.8963,"RA_OF_ASC_NODE":195.5499,"ARG_OF_PERICENTER":87.5428,"MEAN_ANOMALY":272.5653,"EPHEMERIS_TYPE":0,"NORAD_CAT_ID":65785,"ELEMENT_SET_NO":999,"REV_AT_EPOCH":4344,"BSTAR":0.0002221231,"MEAN_MOTION_DOT":0.00001472,"MEAN_MOTION_DDOT":0},{"OBJECT_NAME":"KUIPER-00173","OBJECT_ID":"2025-217AA","EPOCH":"2026-07-11T01:42:19.526112","CLASSIFICATION_TYPE":"U","MEAN_MOTION":14.79930362,"ECCENTRICITY":0.00005345,"INCLINATION":51.8997,"RA_OF_ASC_NODE":207.5208,"ARG_OF_PERICENTER":82.7009,"MEAN_ANOMALY":277.4014,"EPHEMERIS_TYPE":0,"NORAD_CAT_ID":65786,"ELEMENT_SET_NO":999,"REV_AT_EPOCH":4328,"BSTAR":0.00018488937,"MEAN_MOTION_DOT":0.00001189,"MEAN_MOTION_DDOT":0},{"OBJECT_NAME":"KUIPER-00174","OBJECT_ID":"2025-217AB","EPOCH":"2026-07-11T09:56:21.341760","CLASSIFICATION_TYPE":"U","MEAN_MOTION":14.79933116,"ECCENTRICITY":0.00004416,"INCLINATION":51.8998,"RA_OF_ASC_NODE":201.0525,"ARG_OF_PERICENTER":73.6856,"MEAN_ANOMALY":286.4155,"EPHEMERIS_TYPE":0,"NORAD_CAT_ID":65787,"ELEMENT_SET_NO":999,"REV_AT_EPOCH":4340,"BSTAR":0.00023692306,"MEAN_MOTION_DOT":0.00001586,"MEAN_MOTION_DDOT":0},{"OBJECT_NAME":"KUIPER-00176","OBJECT_ID":"2025-217AC","EPOCH":"2026-07-11T01:26:48.921216","CLASSIFICATION_TYPE":"U","MEAN_MOTION":14.79933277,"ECCENTRICITY":0.0000373,"INCLINATION":51.8986,"RA_OF_ASC_NODE":217.5525,"ARG_OF_PERICENTER":66.3923,"MEAN_ANOMALY":293.7078,"EPHEMERIS_TYPE":0,"NORAD_CAT_ID":65788,"ELEMENT_SET_NO":999,"REV_AT_EPOCH":4314,"BSTAR":0.000039138068,"MEAN_MOTION_DOT":7.7e-7,"MEAN_MOTION_DDOT":0},{"OBJECT_NAME":"KUIPER-00101","OBJECT_ID":"2025-228A","EPOCH":"2026-07-11T08:13:10.432704","CLASSIFICATION_TYPE":"U","MEAN_MOTION":14.79939719,"ECCENTRICITY":0.00006046,"INCLINATION":51.8976,"RA_OF_ASC_NODE":173.7622,"ARG_OF_PERICENTER":68.6326,"MEAN_ANOMALY":291.4701,"EPHEMERIS_TYPE":0,"NORAD_CAT_ID":65947,"ELEMENT_SET_NO":999,"REV_AT_EPOCH":4154,"BSTAR":0.00023118534,"MEAN_MOTION_DOT":0.00001542,"MEAN_MOTION_DDOT":0},{"OBJECT_NAME":"KUIPER-00113","OBJECT_ID":"2025-228B","EPOCH":"2026-07-10T07:13:41.638368","CLASSIFICATION_TYPE":"U","MEAN_MOTION":14.79925391,"ECCENTRICITY":0.00005345,"INCLINATION":51.8979,"RA_OF_ASC_NODE":173.3869,"ARG_OF_PERICENTER":70.7768,"MEAN_ANOMALY":289.3252,"EPHEMERIS_TYPE":0,"NORAD_CAT_ID":65948,"ELEMENT_SET_NO":999,"REV_AT_EPOCH":4145,"BSTAR":0.00023490202,"MEAN_MOTION_DOT":0.0000157,"MEAN_MOTION_DDOT":0}]}
