[
  {
    "name": "KUIPER-00153",
    "noradId": "65773",
    "line1": "1 65773U 25217M   26192.41683483  .00001256  00000+0  19365-3 0  9992",
    "line2": "2 65773  51.9024 198.5552 0000460  78.3703 281.7311 14.79936876 43442"
  },
  {
    "name": "KUIPER-00155",
    "noradId": "65774",
    "line1": "1 65774U 25217N   26192.31143385  .00000165  00000+0  50681-4 0  9999",
    "line2": "2 65774  51.9013 171.4824 0000633  84.5946 275.5089 14.79928292 43810"
  },
  {
    "name": "KUIPER-00156",
    "noradId": "65775",
    "line1": "1 65775U 25217P   26192.45061935  .00001280  00000+0  19689-3 0  9996",
    "line2": "2 65775  51.9011 198.3868 0000473  68.3693 291.7320 14.79923414 43444"
  },
  {
    "name": "KUIPER-00163",
    "noradId": "65777",
    "line1": "1 65777U 25217R   26192.88101823  .00379036  74638-4  61922-3 0  9993",
    "line2": "2 65777  51.8738 135.5074 0003454  81.8715 278.2691 16.02720685 44344"
  },
  {
    "name": "KUIPER-00165",
    "noradId": "65778",
    "line1": "1 65778U 25217S   26192.43979162  .00001009  00000+0  16136-3 0  9990",
    "line2": "2 65778  51.8979 208.3807 0000512  98.2495 261.8525 14.79932554 43305"
  },
  {
    "name": "KUIPER-00166",
    "noradId": "65779",
    "line1": "1 65779U 25217T   26192.41953996  .00000265  00000+0  63745-4 0  9998",
    "line2": "2 65779  51.9028 196.0191 0000389  76.5715 283.5291 14.79928820 43477"
  },
  {
    "name": "KUIPER-00167",
    "noradId": "65780",
    "line1": "1 65780U 25217U   26192.56404154  .00001171  00000+0  18264-3 0  9995",
    "line2": "2 65780  51.8950 217.7427 0000502  81.0963 279.0056 14.79929629 43183"
  },
  {
    "name": "KUIPER-00168",
    "noradId": "65781",
    "line1": "1 65781U 25217V   26192.44791493  .00001287  00000+0  19788-3 0  9998",
    "line2": "2 65781  51.8999 200.8498 0000417  58.4592 301.6411 14.79923003 43412"
  },
  {
    "name": "KUIPER-00169",
    "noradId": "65782",
    "line1": "1 65782U 25217W   26192.44252373  .00001324  00000+0  20259-3 0  9995",
    "line2": "2 65782  51.9005 205.8827 0000414  72.1700 287.9307 14.79930385 43347"
  },
  {
    "name": "KUIPER-00170",
    "noradId": "65783",
    "line1": "1 65783U 25217X   26192.03193609  .00001208  00000+0  18748-3 0  9998",
    "line2": "2 65783  51.8981 212.6570 0000493  78.9021 281.1997 14.79921647 43216"
  },
  {
    "name": "KUIPER-00172",
    "noradId": "65785",
    "line1": "1 65785U 25217Z   26191.94952962  .00001472  00000+0  22212-3 0  9998",
    "line2": "2 65785  51.8963 195.5499 0001036  87.5428 272.5653 14.79927805 43448"
  },
  {
    "name": "KUIPER-00173",
    "noradId": "65786",
    "line1": "1 65786U 25217AA  26192.07105933  .00001189  00000+0  18489-3 0  9998",
    "line2": "2 65786  51.8997 207.5208 0000534  82.7009 277.4014 14.79930362 43281"
  },
  {
    "name": "KUIPER-00174",
    "noradId": "65787",
    "line1": "1 65787U 25217AB  26192.41413590  .00001586  00000+0  23692-3 0  9991",
    "line2": "2 65787  51.8998 201.0525 0000441  73.6856 286.4155 14.79933116 43400"
  },
  {
    "name": "KUIPER-00176",
    "noradId": "65788",
    "line1": "1 65788U 25217AC  26192.06028844  .00000077  00000+0  39138-4 0  9994",
    "line2": "2 65788  51.8986 217.5525 0000373  66.3923 293.7078 14.79933277 43142"
  },
  {
    "name": "KUIPER-00101",
    "noradId": "65947",
    "line1": "1 65947U 25228A   26192.34248186  .00001542  00000+0  23119-3 0  9996",
    "line2": "2 65947  51.8976 173.7622 0000604  68.6326 291.4701 14.79939719 41545"
  },
  {
    "name": "KUIPER-00113",
    "noradId": "65948",
    "line1": "1 65948U 25228B   26191.30117637  .00001570  00000+0  23490-3 0  9991",
    "line2": "2 65948  51.8979 173.3869 0000534  70.7768 289.3252 14.79925391 41452"
  }
]